[{"OBJECT_NAME":"STARLINK-1413","OBJECT_ID":"2020-035AJ","EPOCH":"2026-03-09T23:07:21.119232","MEAN_MOTION":15.30196842,"ECCENTRICITY":0.00013861,"INCLINATION":53.1621,"RA_OF_ASC_NODE":48.3049,"ARG_OF_PERICENTER":76.6572,"MEAN_ANOMALY":283.4583,"EPHEMERIS_TYPE":0,"CLASSIFICATION_TYPE":"U","NORAD_CAT_ID":45689,"ELEMENT_SET_NO":999,"REV_AT_EPOCH":31893,"BSTAR":1.4614986e-5,"MEAN_MOTION_DOT":7.4e-7,"MEAN_MOTION_DDOT":0},{"OBJECT_NAME":"UTMN 2 (RS27S)","OBJECT_ID":"2023-091AP","EPOCH":"2026-03-09T23:09:07.917408","MEAN_MOTION":15.29495965,"ECCENTRICITY":0.00097379,"INCLINATION":97.5194,"RA_OF_ASC_NODE":134.949,"ARG_OF_PERICENTER":76.0788,"MEAN_ANOMALY":284.1534,"EPHEMERIS_TYPE":0,"CLASSIFICATION_TYPE":"U","NORAD_CAT_ID":57203,"ELEMENT_SET_NO":999,"REV_AT_EPOCH":14936,"BSTAR":0.00056135701,"MEAN_MOTION_DOT":0.00016013,"MEAN_MOTION_DDOT":0}]
